OperatingCentre,PremiseNumber,ConnectionObject,DeviceLocation,DeviceCategory,Equipment,NextMeterReadingdate,Serialnumber,Latitude,Longitude,ServiceAddressHouseNumber,ServiceAddressFraction,ServiceAddressApartment,ServiceAddressStreet,ServiceCity,ServiceState,ServiceZip,ServiceDistrict,ServiceDistrictDescription,AreaCode,AreaCodeDescription,RegionCode,RegionCodeDescription,RouteNumber,RouteNumberDescription,StatusCode,ServiceUtilityType,MeterSize,MeterLocation,MeterLocationFreeText,InstallationNo,CriticalCareType,MajorAccountFlag,MajorAccountManager,AccountManagerContactNumber,AccountManagerEmail
,8000014256,4000006696,,,,,,,,,,56,,City of Whitwell,,,15,Whitwell,2615,Sequatchie Valley,26WW,City of Whitwell,,,Active,,,,,,,,Y,Manager Name,856-123-4567,Accountmanager@account.com
,8000014257,4000006697,,,,,,,,,,57,,City of Whitwell,,,15,Whitwell,2615,Sequatchie Valley,26WW,City of Whitwell,,,Active,,,,,,,,,
,8000014867,4000007307,,,,,,,,,,67,,City of Whitwell,,,15,Whitwell,2615,Sequatchie Valley,26WW,City of Whitwell,,,Active,,,,,,,,,
,8000014885,4000007325,,,,,,,,,,85,,City of Whitwell,,,15,Whitwell,2615,Sequatchie Valley,26WW,City of Whitwell,,,Active,,,,,,,,,
,8000002123,4000010201,,,,,,,,223,223,225,Kings Hwy E,Haddonfield,NJ,08033-1902,15,Burlington/Camden(Haddon),1816,Haddonfield (Haddon),0417,Haddonfield,,,Active,,,,,,,,,
,8000002242,4000010240,,,,,,,,324,324,326,Belmont Ave,Haddonfield,NJ,08033-1302,15,Burlington/Camden(Haddon),1816,Haddonfield (Haddon),0417,Haddonfield,,,Active,,,,,,,,,
,8000001314,4000010862,,,,,,,,224,224,1234,Center St,Haddonfield,NJ,08033-1806,15,Burlington/Camden(Haddon),1816,Haddonfield (Haddon),0417,Haddonfield,,,Active,,,,,,,,,
,8000002085,4000010133,,,,,,,,80,80,82,Grove St,Haddonfield,NJ,08033-1220,15,Burlington/Camden(Haddon),1816,Haddonfield (Haddon),0417,Haddonfield,,,Active,,,,,,,,,
,8000002159,4000010285,,,,,,,,145,145,147,Kings Hwy E,Haddonfield,NJ,08033-2007,15,Burlington/Camden(Haddon),1816,Haddonfield (Haddon),0417,Haddonfield,,,Active,,,,,,,,,
,8000002160,4000010287,,,,,,,,145,145,147,Kings Hwy E,Haddonfield,NJ,08033-2007,15,Burlington/Camden(Haddon),1816,Haddonfield (Haddon),0417,Haddonfield,,,Active,,,,,,,,,
,8000002161,4000010289,,,,,,,,145,145,147,Kings Hwy E,Haddonfield,NJ,08033-2007,15,Burlington/Camden(Haddon),1816,Haddonfield (Haddon),0417,Haddonfield,,,Active,,,,,,,,,
,8000002162,4000010291,,,,,,,,145,145,147,Kings Hwy E,Haddonfield,NJ,08033-2007,15,Burlington/Camden(Haddon),1816,Haddonfield (Haddon),0417,Haddonfield,,,Active,,,,,,,,,
,8000002175,4000010313,,,,,,,,21,21,23,Mechanic St,Haddonfield,NJ,08033-2411,15,Burlington/Camden(Haddon),1816,Haddonfield (Haddon),0417,Haddonfield,,,Active,,,,,,,,,
,8000002177,4000010317,,,,,,,,18,18,22,S Haddon Ave,Haddonfield,NJ,08033-1860,15,Burlington/Camden(Haddon),1816,Haddonfield (Haddon),0417,Haddonfield,,,Active,,,,,,,,,
,8000002178,4000010319,,,,,,,,135,135,137,Kings Hwy E,Haddonfield,NJ,08033-2014,15,Burlington/Camden(Haddon),1816,Haddonfield (Haddon),0417,Haddonfield,,,Active,,,,,,,,,
,8000002485,4000010539,,,,,,,,69,69,APT,Ellis St,Haddonfield,NJ,08033-1826,15,Burlington/Camden(Haddon),1816,Haddonfield (Haddon),0417,Haddonfield,,,Active,,,,,,,,,
,8000002206,4000010380,,,,,,,,119,119,121,Kings Hwy E,Haddonfield,NJ,08033-2003,15,Burlington/Camden(Haddon),1816,Haddonfield (Haddon),0417,Haddonfield,,,Active,,,,,,,,,
,8000002207,4000010382,,,,,,,,119,119,121,Kings Hwy E,Haddonfield,NJ,08033-2003,15,Burlington/Camden(Haddon),1816,Haddonfield (Haddon),0417,Haddonfield,,,Active,,,,,,,,,
,8000002455,4000010479,,,,,,,,220,220,224,Kings Hwy E,Haddonfield,NJ,08033-1907,15,Burlington/Camden(Haddon),1816,Haddonfield (Haddon),0417,Haddonfield,,,Active,,,,,,,,,
,8000002458,4000010485,,,,,,,,230,230,232,Kings Hwy E,Haddonfield,NJ,08033-1907,15,Burlington/Camden(Haddon),1816,Haddonfield (Haddon),0417,Haddonfield,,,Active,,,,,,,,,
,8000002515,4000010599,,,,,,,,202,202,204,Kings Hwy E,Haddonfield,NJ,08033-1905,15,Burlington/Camden(Haddon),1816,Haddonfield (Haddon),0417,Haddonfield,,,Active,,,,,,,,,
,8000002521,4000010611,,,,,,,,14,14,16-18,S Haddon Ave,Haddonfield,NJ,08033-1860,15,Burlington/Camden(Haddon),1816,Haddonfield (Haddon),0417,Haddonfield,,,Active,,,,,,,,,
,8000002540,4000010639,,,,,,,,114,114,116,Kings Hwy E,Haddonfield,NJ,08033-2004,15,Burlington/Camden(Haddon),1816,Haddonfield (Haddon),0417,Haddonfield,,,Active,,,,,,,,,
,8000003520,4000011589,,,,,,,,309,309,311,Warwick Rd,Haddonfield,NJ,08033-3827,15,Burlington/Camden(Haddon),1816,Haddonfield (Haddon),0417,Haddonfield,,,Active,,,,,,,,,
,8000002581,4000010726,,,,,,,,25,25,27,Chestnut St,Haddonfield,NJ,08033-1875,15,Burlington/Camden(Haddon),1816,Haddonfield (Haddon),0417,Haddonfield,,,Active,,,,,,,,,
,8000002584,4000010732,,,,,,,,134,134,138,Kings Hwy E,Haddonfield,NJ,08033-2093,15,Burlington/Camden(Haddon),1816,Haddonfield (Haddon),0417,Haddonfield,,,Active,,,,,,,,,
,8000002586,4000010736,,,,,,,,142,142,144,Kings Hwy E,Haddonfield,NJ,08033-2004,15,Burlington/Camden(Haddon),1816,Haddonfield (Haddon),0417,Haddonfield,,,Active,,,,,,,,,
,8000002591,4000010750,,,,,,,,6,6,8,Kings Hwy E,Haddonfield,NJ,08033-2000,15,Burlington/Camden(Haddon),1816,Haddonfield (Haddon),0417,Haddonfield,,,Active,,,,,,,,,
,8000002592,4000010752,,,,,,,,6,6,8,Kings Hwy E,Haddonfield,NJ,08033-2000,15,Burlington/Camden(Haddon),1816,Haddonfield (Haddon),0417,Haddonfield,,,Active,,,,,,,,,
,8000002593,4000010754,,,,,,,,6,6,8,Kings Hwy E,Haddonfield,NJ,08033-2000,15,Burlington/Camden(Haddon),1816,Haddonfield (Haddon),0417,Haddonfield,,,Active,,,,,,,,,
,8000002715,4000010787,,,,,,,,349,349,351,Lincoln Ave,Haddonfield,NJ,08033-1634,15,Burlington/Camden(Haddon),1816,Haddonfield (Haddon),0417,Haddonfield,,,Active,,,,,,,,,
,5000006006,4000000018,,,,,,,,,,7 " F,,Dlpra Water O&M,,,15,DLPRA Water O&M,0990,DLPRA Water O&M,0707,Dlpra Water O&M,,,Active,,,,,,,,,
,8000004878,4000012918,,,,,,,,35,35,41,Kings Hwy E,Haddonfield,NJ,08033-2009,15,Burlington/Camden(Haddon),1816,Haddonfield (Haddon),0417,Haddonfield,,,Active,,,,,
,8000004882,4000012926,,,,,,,,27,27,29,Kings Hwy E,Haddonfield,NJ,08033-2001,15,Burlington/Camden(Haddon),1816,Haddonfield (Haddon),0417,Haddonfield,,,Active,,,,,
,8000004886,4000012934,,,,,,,,9,9,11,Kings Hwy E,Haddonfield,NJ,08033-2005,15,Burlington/Camden(Haddon),1816,Haddonfield (Haddon),0417,Haddonfield,,,Active,,,,,
,8000004887,4000012936,,,,,,,,9,9,11,Kings Hwy E,Haddonfield,NJ,08033-2005,15,Burlington/Camden(Haddon),1816,Haddonfield (Haddon),0417,Haddonfield,,,Active,,,,,
,8000004888,4000012938,,,,,,,,9,9,11,Kings Hwy E,Haddonfield,NJ,08033-2005,15,Burlington/Camden(Haddon),1816,Haddonfield (Haddon),0417,Haddonfield,,,Active,,,,,
,8000004889,4000012940,,,,,,,,9,9,11,Kings Hwy E,Haddonfield,NJ,08033-2005,15,Burlington/Camden(Haddon),1816,Haddonfield (Haddon),0417,Haddonfield,,,Active,,,,,
,8000004829,4000013018,,,,,,,,70,70,72,Tanner St,Haddonfield,NJ,08033-2419,15,Burlington/Camden(Haddon),1816,Haddonfield (Haddon),0417,Haddonfield,,,Active,,,,,
,8000004830,4000013020,,,,,,,,48,48,62,Tanner St,Haddonfield,NJ,08033-2420,15,Burlington/Camden(Haddon),1816,Haddonfield (Haddon),0417,Haddonfield,,,Active,,,,,
